{"spkid": "50837616", "covariance": {"labels": ["e", "q", "tp", "node", "peri", "i"], "data": [["1.61706114962737E-12", "-1.903312815589456E-12", "1.041003210220172E-10", "-1.049997864873568E-11", "-1.246300022422357E-10", "1.160490311201786E-11"], ["-1.903312815589456E-12", "2.240366817948228E-12", "-1.224201466310971E-10", "1.242342712736984E-11", "1.467607375167811E-10", "-1.365642878822816E-11"], ["1.041003210220172E-10", "-1.224201466310971E-10", "6.909677998861441E-9", "-5.447106404138719E-10", "-7.915662386634875E-9", "7.47131803790767E-10"], ["-1.049997864873568E-11", "1.242342712736984E-11", "-5.447106404138719E-10", "6.971664736812245E-10", "3.312639437522085E-10", "-5.945258247078372E-12"], ["-1.246300022422357E-10", "1.467607375167811E-10", "-7.915662386634875E-9", "3.312639437522085E-10", "1.020830185971952E-8", "-9.634454865994059E-10"], ["1.160490311201786E-11", "-1.365642878822816E-11", "7.47131803790767E-10", "-5.945258247078372E-12", "-9.634454865994059E-10", "9.916691176264191E-11"]], "elements": [{"name": "e", "sigma": 1.27163719260934e-06, "units": null, "title": "eccentricity", "value": ".1686341842060425", "label": "e"}, {"sigma": 1.49678549496854e-06, "name": "q", "value": ".7949813421162174", "title": "perihelion distance", "units": "au", "label": "q"}, {"label": "tp", "title": "time of perihelion passage", "value": "2458395.046371887858", "units": "TDB", "name": "tp", "sigma": 8.31244729238113e-05}, {"label": "node", "units": "deg", "title": "longitude of the ascending node", "value": "98.05950521167513", "name": "om", "sigma": 2.64039101968103e-05}, {"units": "deg", "title": "argument of perihelion", "value": "247.6082403746617", "sigma": 0.00010103614135407, "name": "w", "label": "peri"}, {"name": "i", "sigma": 9.95825847036729e-06, "units": "deg", "title": "inclination", "value": "1.666570308960694", "label": "i"}], "epoch": "2458508.5"}, "elements": [{"label": "e", "sigma": "1.2807E-6", "name": "e", "title": "eccentricity", "value": ".1685056970619015", "units": null}, {"label": "a", "value": ".9568201758985073", "title": "semi-major axis", "units": "au", "name": "a", "sigma": "3.3251E-7"}, {"title": "perihelion distance", "value": ".7955905251958382", "units": "au", "name": "q", "sigma": "1.5017E-6", "label": "q"}, {"units": "deg", "title": "inclination; angle with respect to x-y ecliptic plane", "value": "1.668319752901245", "name": "i", "sigma": "9.9588E-6", "label": "i"}, {"label": "node", "value": "97.80815839473269", "title": "longitude of the ascending node", "units": "deg", "sigma": "2.5661E-5", "name": "om"}, {"label": "peri", "units": "deg", "title": "argument of perihelion", "value": "247.5386585614428", "sigma": "9.83E-5", "name": "w"}, {"units": "deg", "title": "mean anomaly", "value": "75.42908568964232", "name": "ma", "sigma": ".0014691", "label": "M"}, {"name": "tp", "sigma": ".0013577", "units": "TDB", "value": "2461128.872423652238", "title": "time of perihelion passage", "label": "tp"}, {"label": "period", "units": "d", "title": "sidereal orbital period", "value": "341.8565563858489", "sigma": ".0001782", "name": "per"}, {"units": "deg/d", "title": "mean motion", "value": "1.053073265014911", "name": "n", "sigma": "5.4895E-7", "label": "n"}, {"sigma": "3.8855E-7", "name": "ad", "value": "1.118049826601176", "title": "aphelion distance", "units": "au", "label": "Q"}], "epoch": "2461200.5"}